OBJECT_NAME,OBJECT_ID,EPOCH,MEAN_MOTION,ECCENTRICITY,INCLINATION,RA_OF_ASC_NODE,ARG_OF_PERICENTER,MEAN_ANOMALY,EPHEMERIS_TYPE,CLASSIFICATION_TYPE,NORAD_CAT_ID,ELEMENT_SET_NO,REV_AT_EPOCH,BSTAR,MEAN_MOTION_DOT,MEAN_MOTION_DDOT
HAWK-5A,2022-057AB,2026-07-04T21:45:54.247968,15.52050583,.00042354,97.6628,345.9084,16.9021,343.2371,0,U,52757,999,22909,.49041079E-3,.2953E-3,0
HAWK-6B,2023-011A,2026-07-04T13:26:17.104416,15.23089219,.00025019,40.4975,250.7337,181.0595,179.0210,0,U,55324,999,19049,.30807955E-3,.7228E-4,0
HAWK-6C,2023-011C,2026-07-03T21:41:11.276736,15.23076788,.00027139,40.4962,251.3992,156.9532,203.1400,0,U,55326,999,19040,.2246611E-3,.5215E-4,0
HAWK-6A,2023-011D,2026-07-04T05:33:20.439648,15.23081616,.000233,40.4973,251.1123,159.0121,201.0785,0,U,55327,999,19045,.23486703E-3,.5461E-4,0
HAWK-7A,2023-054P,2026-07-04T16:00:56.264832,15.27550832,.00026584,97.2676,72.5599,14.1310,346.0004,0,U,56191,999,17969,.34478688E-3,.9222E-4,0
HAWK-7B,2023-054R,2026-07-04T16:00:50.280768,15.27554264,.00024514,97.2702,70.8301,35.6859,324.4544,0,U,56193,999,17969,.36976706E-3,.9897E-4,0
HAWK-7C,2023-054Y,2026-07-04T16:00:40.406112,15.27553253,.000216,97.2678,71.5932,23.6489,336.4850,0,U,56200,999,17969,.36618487E-3,.98E-4,0
